ONEWEB-0694             
1 56722U 23068N   24008.25001157 -.00051271  00000+0 -36727-1 0  9999
2 56722  87.2900  47.7114 0015416 128.4986 235.6918 13.97473091 35050
ONEWEB-0696             
1 56723U 23068P   24008.16028185  .00000185  00000+0  45725-3 0  9996
2 56723  87.8990  76.5964 0001959 115.7102 244.4231 13.15549491 32911
ONEWEB-0703             
1 56724U 23068Q   24007.71421372  .00000107  00000+0  24936-3 0  9997
2 56724  87.8990  76.7080 0002362 137.8983 222.2329 13.15548788 32048
ONEWEB-0721             
1 56725U 23068R   24007.61161517  .00002009  00000+0  23823-3 0  9996
2 56725  86.6754  43.5702 0013013 119.1196 241.1333 14.83945581 35238
